OBJECT_NAME,OBJECT_ID,EPOCH,MEAN_MOTION,ECCENTRICITY,INCLINATION,RA_OF_ASC_NODE,ARG_OF_PERICENTER,MEAN_ANOMALY,EPHEMERIS_TYPE,CLASSIFICATION_TYPE,NORAD_CAT_ID,ELEMENT_SET_NO,REV_AT_EPOCH,BSTAR,MEAN_MOTION_DOT,MEAN_MOTION_DDOT
STARLINK-32529,2024-224A,2026-06-30T14:04:50.181024,15.27603096,.00020594,43.0001,240.7626,273.3630,86.6986,0,U,62139,999,8968,.47983223E-3,.12975E-3,0
STARLINK-32464,2024-224B,2026-06-30T12:41:48.503040,15.27590551,.00026654,43.0007,241.1682,280.4721,79.5831,0,U,62140,999,8967,.84851138E-3,.23169E-3,0
STARLINK-32482,2024-224C,2026-06-29T21:38:53.537856,15.27605588,.00020541,43.0040,244.2012,264.0113,96.0504,0,U,62141,999,8948,.71949021E-3,.19605E-3,0
STARLINK-32454,2024-224D,2026-06-29T21:32:08.289888,15.27591217,.00009644,42.9990,251.9456,299.2605,60.8150,0,U,62142,999,8955,.30353087E-3,.8103E-4,0
STARLINK-32485,2024-224E,2026-06-30T13:10:29.485632,15.27591830,.00012288,42.9987,243.9163,271.5484,88.5226,0,U,62143,999,8927,.94136708E-3,.25742E-3,0
STARLINK-32388,2024-224F,2026-06-29T21:26:36.132000,15.27569342,.00006532,42.9977,251.9141,292.8798,67.1985,0,U,62144,999,8955,.67823173E-3,.18442E-3,0
STARLINK-32374,2024-224G,2026-06-30T13:51:53.464032,15.27587645,.00020687,43.0020,240.6676,261.7553,98.3064,0,U,62145,999,8974,.51036215E-3,.13812E-3,0
STARLINK-32384,2024-224H,2026-06-30T12:19:35.444352,15.27585594,.00011196,42.9985,241.0521,285.5172,74.5556,0,U,62146,999,8973,.5129279E-3,.13882E-3,0
STARLINK-32295,2024-224J,2026-06-30T14:08:32.841600,15.27583213,.0001309,43.0007,240.7576,272.9006,87.1696,0,U,62147,999,8963,.54219335E-3,.14689E-3,0
STARLINK-32479,2024-224K,2026-06-30T13:38:55.871808,15.27579203,.0002334,42.9994,240.6100,254.3292,105.7302,0,U,62148,999,8968,.769022E-3,.2096E-3,0
STARLINK-32468,2024-224L,2026-06-30T13:37:05.267712,15.27586556,.00023273,43.0010,240.5959,260.8409,99.2179,0,U,62149,999,8958,.56209699E-3,.15241E-3,0
STARLINK-32629,2024-224M,2026-06-29T21:16:40.001376,15.27585607,.00017893,43.0041,244.0826,270.0772,89.9875,0,U,62150,999,8964,.65169366E-3,.17717E-3,0
STARLINK-32644,2024-224N,2026-06-30T14:06:42.047424,15.27582334,.00008138,42.9968,240.7470,280.2008,79.8752,0,U,62151,999,8974,.55038527E-3,.14915E-3,0
STARLINK-32623,2024-224P,2026-06-29T21:43:43.285440,15.27579657,.00021773,43.0012,247.6867,271.1659,88.8943,0,U,62152,999,8954,.97408931E-3,.2664E-3,0
STARLINK-32639,2024-224Q,2026-06-29T20:47:16.300032,15.27604187,.00020047,42.9968,244.7863,289.9725,70.0911,0,U,62153,999,8947,.77864481E-3,.21243E-3,0
STARLINK-32625,2024-224R,2026-06-29T20:58:21.780480,15.27649301,.00015124,43.0031,244.8470,298.5644,61.5055,0,U,62154,999,8952,.28925268E-2,.80375E-3,0
STARLINK-32635,2024-224S,2026-06-29T21:37:41.416320,15.27577175,.00009792,42.9989,251.9732,280.9872,79.0870,0,U,62155,999,8939,.65198879E-3,.17721E-3,0
STARLINK-32532,2024-224T,2026-06-29T21:44:25.122048,15.27593349,.00019149,43.0003,244.2313,287.9317,72.1325,0,U,62156,999,8948,.36431816E-3,.9781E-4,0
STARLINK-32503,2024-224U,2026-06-30T13:02:36.384288,15.27577775,.00008061,42.9992,248.1918,286.1246,73.9517,0,U,62157,999,8922,.45993535E-3,.12415E-3,0
STARLINK-32508,2024-224V,2026-06-30T12:08:29.189760,15.27589834,.00015879,42.9970,240.9907,270.5745,89.4924,0,U,62158,999,8973,.70793634E-3,.19276E-3,0
STARLINK-32524,2024-224W,2026-06-30T13:41:56.439168,15.27584093,.00022205,43.0012,244.0818,257.9195,102.1408,0,U,62159,999,8954,.12587099E-3,.3203E-4,0
STARLINK-32484,2024-224X,2026-06-29T20:56:31.962624,15.27580054,.00009222,42.9976,244.8334,321.0316,39.0469,0,U,62160,999,8963,.55442864E-3,.15026E-3,0
STARLINK-32497,2024-224Y,2026-06-30T13:30:50.684832,15.27587836,.00018598,43.0026,244.0225,278.0834,81.9806,0,U,62161,999,8969,.60024208E-3,.16296E-3,0
STARLINK-32526,2024-224Z,2026-06-30T13:36:23.202144,15.27587895,.00023355,43.0024,244.0524,259.8104,100.2484,0,U,62162,999,8969,.37163723E-3,.9981E-4,0
STARLINK-32523,2024-225C,2026-06-30T10:50:04.964640,14.98324232,.00042103,69.9998,240.2195,269.4162,90.6515,0,U,62165,999,8676,.14029128E-3,.1581E-4,0
STARLINK-32551,2024-225D,2026-06-30T11:50:08.241216,14.98332544,.00037991,70.0005,239.9727,269.0627,91.0096,0,U,62166,999,8677,.33617112E-3,.3921E-4,0
STARLINK-32506,2024-225E,2026-06-30T11:14:06.473472,14.98335759,.00039812,69.9992,240.2791,266.9205,93.1498,0,U,62167,999,8676,.20121429E-3,.2309E-4,0
STARLINK-32562,2024-225F,2026-06-30T10:32:02.414976,14.98339853,.00035954,70.0001,240.1763,269.8247,90.2500,0,U,62168,999,8676,.34786147E-3,.4061E-4,0
STARLINK-32558,2024-225G,2026-06-30T13:56:18.303360,14.98375011,.00037127,69.9998,239.8670,267.9975,92.0759,0,U,62169,999,8678,.1270924E-2,.15122E-3,0
STARLINK-32538,2024-225H,2026-06-30T11:02:05.368704,14.98332208,.00042404,70.0000,240.2515,272.2059,87.8614,0,U,62170,999,8676,.16022311E-3,.1819E-4,0
STARLINK-32257,2024-225J,2026-06-30T11:32:07.342656,14.98333504,.0003938,69.9999,239.9250,273.3437,86.7272,0,U,62171,999,8677,-.20179288E-4,-.334E-5,0
STARLINK-32407,2024-225K,2026-06-30T11:56:09.094272,14.98333639,.00038254,70.0001,239.9773,266.7607,93.3115,0,U,62172,999,8677,.36930429E-3,.4317E-4,0
STARLINK-32575,2024-225L,2026-06-30T12:58:48.955296,14.98330777,.00046919,69.9996,229.7247,265.5348,94.5275,0,U,62173,999,8703,.96218647E-4,.1055E-4,0
STARLINK-32552,2024-225M,2026-06-30T11:38:08.603520,14.98337219,.00037923,69.9996,239.9395,267.5417,92.5308,0,U,62174,999,8677,.34593729E-3,.4038E-4,0
STARLINK-32534,2024-225N,2026-06-30T11:08:05.911584,14.98335702,.00035352,70.0000,240.2651,268.4397,91.6357,0,U,62175,999,8676,.19193886E-3,.2198E-4,0
STARLINK-32516,2024-225P,2026-06-30T10:56:06.130464,14.98325741,.00036452,70.0003,240.2354,269.8198,90.2544,0,U,62176,999,8676,.37869493E-3,.4428E-4,0
STARLINK-32542,2024-225Q,2026-06-30T13:50:18.951936,14.98333607,.00040734,70.0002,239.8527,266.4415,93.6278,0,U,62177,999,8678,.3811676E-3,.4459E-4,0
STARLINK-32600,2024-225R,2026-06-30T10:58:40.580832,14.98333231,.00039341,70.0000,230.2349,266.8278,93.2431,0,U,62178,999,8701,.16799089E-3,.1912E-4,0
STARLINK-32584,2024-225S,2026-06-30T13:38:17.099808,14.98334781,.00037177,69.9999,239.7617,268.9917,91.0817,0,U,62179,999,8678,.18019974E-3,.2058E-4,0
STARLINK-32587,2024-225T,2026-06-30T11:44:07.000224,14.98332523,.0004046,70.0004,239.8652,268.4233,91.6463,0,U,62180,999,8677,.14079442E-3,.1587E-4,0
STARLINK-32602,2024-225U,2026-06-30T13:46:54.132096,14.98338130,.00033303,70.0000,229.8427,269.6728,90.4049,0,U,62181,999,8703,.22519254E-3,.2596E-4,0
STARLINK-32565,2024-225V,2026-06-30T11:20:05.122464,14.98361238,.00035791,70.0001,239.8978,272.4265,87.6484,0,U,62182,999,8677,.11757903E-2,.13976E-3,0
STARLINK-32589,2024-225W,2026-06-30T11:19:54.220512,14.98334375,.00034401,69.9999,240.2947,274.2059,85.8707,0,U,62183,999,8676,.35057875E-3,.4093E-4,0
STARLINK-32581,2024-225X,2026-06-30T11:46:43.411872,14.98337198,.00039501,69.9998,229.9513,268.5969,91.4738,0,U,62184,999,8702,.22586819E-3,.2604E-4,0
STARLINK-32686,2024-229A,2026-06-29T21:28:32.002176,15.27612555,.00014112,43.0002,353.4212,279.6714,80.3979,0,U,62192,999,8776,.6733247E-3,.18331E-3,0
STARLINK-32688,2024-229B,2026-06-30T12:01:09.829344,15.27590968,.00009815,42.9969,353.6822,193.6139,166.4686,0,U,62193,999,8781,.76900064E-3,.20966E-3,0
STARLINK-32684,2024-229C,2026-06-30T12:58:18.729984,15.27603008,.00024308,43.0039,353.1217,285.5086,74.5498,0,U,62194,999,8900,.99627519E-3,.27275E-3,0
STARLINK-32672,2024-229D,2026-06-30T13:18:39.922272,15.27598458,.00021175,42.9967,353.2235,271.1942,88.8667,0,U,62195,999,8782,.11247273E-2,.30836E-3,0
STARLINK-32682,2024-229E,2026-06-30T02:01:28.190784,15.27556907,.00010282,43.0006,323.3005,276.8023,83.2712,0,U,62196,999,8812,.74326186E-3,.20233E-3,0
STARLINK-32663,2024-229F,2026-06-30T12:32:37.245120,15.27599728,.0002122,43.0036,353.8430,284.8660,75.1957,0,U,62197,999,8781,.958597E-3,.26227E-3,0
STARLINK-32640,2024-229G,2026-06-30T13:07:33.011040,15.27595628,.00036139,43.0011,353.1666,288.2718,71.7741,0,U,62198,999,8782,.10885056E-2,.2983E-3,0
STARLINK-32653,2024-229H,2026-06-30T12:04:25.504608,15.27545510,.00025847,43.0071,346.7333,284.5545,75.5020,0,U,62199,999,8789,.58095286E-3,.15742E-3,0
STARLINK-32647,2024-229J,2026-06-30T12:04:51.929184,15.27586680,.00006059,42.9991,353.7008,259.1753,100.9030,0,U,62200,999,8781,.7480253E-3,.20383E-3,0
STARLINK-32667,2024-229K,2026-06-30T12:47:12.568704,15.27602382,.00015993,43.0036,353.0645,182.7207,177.3636,0,U,62201,999,8782,.10097082E-2,.27646E-3,0
STARLINK-32655,2024-229L,2026-06-30T12:21:30.352032,15.27578909,.00037637,43.0013,353.7831,290.9365,69.1084,0,U,62202,999,8781,.68924036E-3,.18754E-3,0
STARLINK-32665,2024-229M,2026-06-30T11:55:37.303392,15.27572226,.00005515,42.9985,353.6532,241.2309,118.8488,0,U,62203,999,8781,.73581025E-3,.20036E-3,0
STARLINK-32664,2024-229N,2026-06-30T03:18:01.794528,15.65500435,.00285212,42.9905,336.0718,318.4043,41.4653,0,U,62204,999,8798,.12558276E-2,.133924E-2,0
STARLINK-32660,2024-229P,2026-06-30T03:28:45.347520,15.27589960,.00008486,43.0020,341.4343,284.2314,75.8444,0,U,62205,999,8792,.10972116E-2,.30063E-3,0
STARLINK-32448,2024-229Q,2026-06-30T12:52:44.705856,15.27613018,.00017456,43.0040,353.0909,271.6182,88.4470,0,U,62206,999,8782,.79178849E-3,.21612E-3,0
STARLINK-32430,2024-229R,2026-06-30T12:12:57.885984,15.27590761,.00010115,43.0000,350.2862,261.6234,98.4503,0,U,62207,999,8785,.10019214E-2,.2742E-3,0
STARLINK-32675,2024-229S,2026-06-30T11:50:03.842592,15.27591409,.00048699,43.0065,353.6271,284.0358,75.9952,0,U,62208,999,8781,.70663303E-3,.19245E-3,0
STARLINK-32671,2024-229T,2026-06-30T12:41:51.976320,15.27594451,.00016228,43.0027,353.8870,192.7773,167.3037,0,U,62209,999,8781,.71107874E-3,.19365E-3,0
STARLINK-32670,2024-229U,2026-06-30T13:13:07.285728,15.27584472,.00012261,43.0000,353.1916,235.6964,124.3771,0,U,62210,999,8782,.58811481E-3,.15959E-3,0
STARLINK-32642,2024-229V,2026-06-30T13:03:51.692256,15.27598594,.00015684,43.0020,353.1452,264.4849,95.5824,0,U,62211,999,8782,.96532189E-3,.26412E-3,0
